NORAD_CAT_ID,OBJECT_NAME,OBJECT_TYPE,EPOCH,MEAN_MOTION,ECCENTRICITY,INCLINATION,RA_OF_ASC_NODE,ARG_OF_PERICENTER,MEAN_ANOMALY,BSTAR,MEAN_MOTION_DOT,MEAN_MOTION_DDOT,TLE_LINE0,TLE_LINE1,TLE_LINE2,SEMIMAJOR_AXIS,PERIOD,APOGEE,PERIGEE,DECAYED
51985.0,STARLINK-3651,PAYLOAD,2024-06-18 10:58:09,15.08830176,0.0001203,53.2194,343.8675,87.4143,272.6987,1.2801e-05,-8.4e-07,0.0,0 STARLINK-3651,1 51985U 22025AF  24170.45705301 -.00000084  00000-0  12801-4 0  9997,2 51985  53.2194 343.8675 0001203  87.4143 272.6987 15.08830176126068,6917.91,95.438,540.608,538.943,0.0
51985.0,STARLINK-3651,PAYLOAD,2024-06-18 18:55:04,15.08837181,0.0001216,53.2186,342.3813,89.6023,270.5108,5.9452e-05,6.58e-06,0.0,0 STARLINK-3651,1 51985U 22025AF  24170.78824793  .00000658  00000-0  59452-4 0  9999,2 51985  53.2186 342.3813 0001216  89.6023 270.5108 15.08837181126113,6917.889,95.438,540.595,538.913,0.0
51985.0,STARLINK-3651,PAYLOAD,2024-06-19 10:48:56,15.08835351,0.0001182,53.2183,339.4079,89.9082,270.2046,0.00010401,1.368e-05,0.0,0 STARLINK-3651,1 51985U 22025AF  24171.45064871  .00001368  00000-0  10401-3 0  9996,2 51985  53.2183 339.4079 0001182  89.9082 270.2046 15.08835351127308,6917.895,95.438,540.577,538.942,0.0
51985.0,STARLINK-3651,PAYLOAD,2024-06-19 18:45:51,15.08838069,0.0001178,53.2183,337.9208,86.4976,273.6151,0.0001142,1.53e-05,0.0,0 STARLINK-3651,1 51985U 22025AF  24171.78184800  .00001530  00000-0  11420-3 0  9990,2 51985  53.2183 337.9208 0001178  86.4976 273.6151 15.08838069126261,6917.886,95.438,540.566,538.936,0.0
51985.0,STARLINK-3651,PAYLOAD,2024-06-20 10:39:43,15.08839518,0.0001263,53.2183,334.9475,81.6415,278.472,6.2572e-05,7.08e-06,0.0,0 STARLINK-3651,1 51985U 22025AF  24172.44425005  .00000708  00000-0  62572-4 0  9990,2 51985  53.2183 334.9475 0001263  81.6415 278.4720 15.08839518126360,6917.882,95.438,540.621,538.873,0.0
51985.0,STARLINK-3651,PAYLOAD,2024-06-20 18:36:38,15.08845648,0.0001143,53.218,333.4601,85.4592,274.6531,6.9777e-05,8.23e-06,0.0,0 STARLINK-3651,1 51985U 22025AF  24172.77544536  .00000823  00000-0  69777-4 0  9999,2 51985  53.2180 333.4601 0001143  85.4592 274.6531 15.08845648127503,6917.863,95.437,540.519,538.937,0.0
51985.0,STARLINK-3651,PAYLOAD,2024-06-21 10:30:30,15.08838794,0.0001312,53.2187,330.4872,78.791,281.323,-2.8812e-06,-3.34e-06,0.0,0 STARLINK-3651,1 51985U 22025AF  24173.43785250 -.00000334  00000-0 -28812-5 0  9998,2 51985  53.2187 330.4872 0001312  78.7910 281.3230 15.08838794127600,6917.884,95.438,540.657,538.841,0.0
51985.0,STARLINK-3651,PAYLOAD,2024-06-21 16:52:02,15.0884048,0.0001281,53.2186,329.2975,81.166,278.9477,2.8014e-06,-2.43e-06,0.0,0 STARLINK-3651,1 51985U 22025AF  24173.70281128 -.00000243  00000-0  28014-5 0  9995,2 51985  53.2186 329.2975 0001281  81.1660 278.9477 15.08840480126557,6917.879,95.438,540.63,538.858,0.0
51985.0,STARLINK-3651,PAYLOAD,2024-06-22 13:32:03,15.0882174,0.0001139,53.2182,325.4322,91.1221,268.9902,0.00028864,4.307e-05,0.0,0 STARLINK-3651,1 51985U 22025AF  24174.56393508  .00004307  00000-0  28864-3 0  9991,2 51985  53.2182 325.4322 0001139  91.1221 268.9902 15.08821740126687,6917.936,95.439,540.589,539.013,0.0
51985.0,STARLINK-3651,PAYLOAD,2024-06-22 16:42:49,15.08838752,0.0001189,53.2193,324.8382,78.2107,281.9018,5.5348e-05,5.93e-06,0.0,0 STARLINK-3651,1 51985U 22025AF  24174.69641085  .00000593  00000-0  55348-4 0  9992,2 51985  53.2193 324.8382 0001189  78.2107 281.9018 15.08838752127799,6917.884,95.438,540.572,538.927,0.0
51985.0,STARLINK-3651,PAYLOAD,2024-06-23 10:12:03,15.08850617,0.0001238,53.219,321.5667,94.7862,265.3272,6.0824e-05,6.81e-06,0.0,0 STARLINK-3651,1 51985U 22025AF  24175.42504117  .00000681  00000-0  60824-4 0  9991,2 51985  53.2190 321.5667 0001238  94.7862 265.3272 15.08850617127907,6917.848,95.437,540.569,538.857,0.0
51985.0,STARLINK-3651,PAYLOAD,2024-06-23 13:22:49,15.08857111,0.0001066,53.2187,320.9709,94.0413,266.0701,0.00017282,2.465e-05,0.0,0 STARLINK-3651,1 51985U 22025AF  24175.55751224  .00002465  00000-0  17282-3 0  9999,2 51985  53.2187 320.9709 0001066  94.0413 266.0701 15.08857111126839,6917.828,95.436,540.431,538.956,0.0
51985.0,STARLINK-3651,PAYLOAD,2024-06-23 19:44:21,15.08859184,0.0001636,53.2187,319.7817,115.173,244.9432,0.00019458,2.812e-05,0.0,0 STARLINK-3651,1 51985U 22025AF  24175.82246703  .00002812  00000-0  19458-3 0  9993,2 51985  53.2187 319.7817 0001636 115.1730 244.9432 15.08859184127968,6917.822,95.436,540.819,538.555,0.0
51985.0,STARLINK-3651,PAYLOAD,2024-06-24 13:13:37,15.08832532,0.0001351,53.2193,316.5118,97.7218,262.3927,-6.1471e-05,-1.266e-05,0.0,0 STARLINK-3651,1 51985U 22025AF  24176.55113333 -.00001266  00000-0 -61471-4 0  9993,2 51985  53.2193 316.5118 0001351  97.7218 262.3927 15.08832532128078,6917.903,95.438,540.703,538.834,0.0
51985.0,STARLINK-3651,PAYLOAD,2024-06-24 14:49:00,15.08834355,0.000152,53.219,316.213,107.3094,252.8065,-5.4566e-05,-1.156e-05,0.0,0 STARLINK-3651,1 51985U 22025AF  24176.61737210 -.00001156  00000-0 -54566-4 0  9991,2 51985  53.2190 316.2130 0001520 107.3094 252.8065 15.08834355126995,6917.898,95.438,540.814,538.711,0.0
51985.0,STARLINK-3651,PAYLOAD,2024-06-24 16:24:24,15.08834144,0.0001464,53.2186,315.9154,102.9492,257.1663,-4.7941e-05,-1.051e-05,0.0,0 STARLINK-3651,1 51985U 22025AF  24176.68361239 -.00001051  00000-0 -47941-4 0  9995,2 51985  53.2186 315.9154 0001464 102.9492 257.1663 15.08834144127003,6917.898,95.438,540.776,538.751,0.0
51985.0,STARLINK-3651,PAYLOAD,2024-06-25 13:04:24,15.08840759,0.0001299,53.2183,312.0505,100.7488,259.365,-0.00014958,-2.668e-05,0.0,0 STARLINK-3651,1 51985U 22025AF  24177.54473245 -.00002668  00000-0 -14958-3 0  9998,2 51985  53.2183 312.0505 0001299 100.7488 259.3650 15.08840759128229,6917.878,95.438,540.642,538.844,0.0
51985.0,STARLINK-3651,PAYLOAD,2024-06-25 14:39:47,15.08842808,0.0001531,53.2189,311.7536,106.6784,253.4376,-0.00014227,-2.552e-05,0.0,0 STARLINK-3651,1 51985U 22025AF  24177.61097087 -.00002552  00000-0 -14227-3 0  9993,2 51985  53.2189 311.7536 0001531 106.6784 253.4376 15.08842808127145,6917.872,95.437,540.796,538.678,0.0
51985.0,STARLINK-3651,PAYLOAD,2024-06-25 17:50:33,15.08846123,0.0001551,53.2185,311.1549,110.2388,249.8771,-0.00010399,-1.943e-05,0.0,0 STARLINK-3651,1 51985U 22025AF  24177.74344685 -.00001943  00000-0 -10399-3 0  9995,2 51985  53.2185 311.1549 0001551 110.2388 249.8771 15.08846123128257,6917.862,95.437,540.8,538.654,0.0
51985.0,STARLINK-3651,PAYLOAD,2024-06-27 12:45:59,15.08839677,0.0001481,53.2187,303.1276,79.8807,280.2352,1.7654e-06,-2.6e-06,0.0,0 STARLINK-3651,1 51985U 22025AF  24179.53193533 -.00000260  00000-0  17654-5 0  9991,2 51985  53.2187 303.1276 0001481  79.8807 280.2352 15.08839677128525,6917.881,95.438,540.771,538.722,0.0
51985.0,STARLINK-3651,PAYLOAD,2024-06-27 20:42:54,15.08850487,0.0001284,53.2163,301.6423,84.8887,275.2252,3.2663e-05,2.32e-06,0.0,0 STARLINK-3651,1 51985U 22025AF  24179.86312625  .00000232  00000-0  32663-4 0  9996,2 51985  53.2163 301.6423 0001284  84.8887 275.2252 15.08850487127480,6917.848,95.437,540.602,538.825,0.0
51985.0,STARLINK-3651,PAYLOAD,2024-06-28 01:29:04,15.08830635,0.0001064,53.2153,300.7518,83.7334,276.3779,-6.308e-05,-1.291e-05,0.0,0 STARLINK-3651,1 51985U 22025AF  24180.06186050 -.00001291  00000-0 -63080-4 0  9996,2 51985  53.2153 300.7518 0001064  83.7334 276.3779 15.08830635128609,6917.909,95.438,540.51,539.038,0.0
51985.0,STARLINK-3651,PAYLOAD,2024-06-28 12:36:45,15.0884142,0.0001202,53.2154,298.6687,81.4292,278.6836,0.00010262,1.346e-05,0.0,0 STARLINK-3651,1 51985U 22025AF  24180.52553071  .00001346  00000-0  10262-3 0  9990,2 51985  53.2154 298.6687 0001202  81.4292 278.6836 15.08841420128674,6917.876,95.437,540.573,538.91,0.0
51985.0,STARLINK-3651,PAYLOAD,2024-06-28 14:12:09,15.08841152,0.0001104,53.2153,298.3716,80.7474,279.3643,9.0737e-05,1.157e-05,0.0,0 STARLINK-3651,1 51985U 22025AF  24180.59177099  .00001157  00000-0  90737-4 0  9995,2 51985  53.2153 298.3716 0001104  80.7474 279.3643 15.08841152127594,6917.877,95.437,540.506,538.978,0.0
51985.0,STARLINK-3651,PAYLOAD,2024-06-29 12:27:34,15.08823857,0.0001577,53.2163,294.2069,100.6191,259.4978,-0.00013917,-2.501e-05,0.0,0 STARLINK-3651,1 51985U 22025AF  24181.51915285 -.00002501  00000-0 -13917-3 0  9995,2 51985  53.2163 294.2069 0001577 100.6191 259.4978 15.08823857128822,6917.93,95.439,540.886,538.704,0.0
51985.0,STARLINK-3651,PAYLOAD,2024-06-29 14:02:57,15.08824554,0.0001555,53.2163,293.9092,103.6564,256.4601,-0.00013035,-2.361e-05,0.0,0 STARLINK-3651,1 51985U 22025AF  24181.58539258 -.00002361  00000-0 -13035-3 0  9999,2 51985  53.2163 293.9092 0001555 103.6564 256.4601 15.08824554127742,6917.928,95.439,540.868,538.717,0.0
51985.0,STARLINK-3651,PAYLOAD,2024-06-30 10:42:56,15.08851903,0.0001245,53.2168,290.0442,102.2767,257.8365,0.00015023,2.105e-05,0.0,0 STARLINK-3651,1 51985U 22025AF  24182.44649042  .00002105  00000-0  15023-3 0  9991,2 51985  53.2168 290.0442 0001245 102.2767 257.8365 15.08851903128965,6917.844,95.437,540.57,538.848,0.0
51985.0,STARLINK-3651,PAYLOAD,2024-06-30 13:53:42,15.08861664,0.0001272,53.2172,289.4488,93.1254,266.9884,8.6375e-05,1.088e-05,0.0,0 STARLINK-3651,1 51985U 22025AF  24182.57896609  .00001088  00000-0  86375-4 0  9996,2 51985  53.2172 289.4488 0001272  93.1254 266.9884 15.08861664127894,6917.814,95.436,540.559,538.799,0.0
51985.0,STARLINK-3651,PAYLOAD,2024-07-01 12:09:08,15.08827968,0.000155,53.2161,285.2849,120.3001,239.8145,0.00022816,3.344e-05,0.0,0 STARLINK-3651,1 51985U 22025AF  24183.50634295  .00003344  00000-0  22816-3 0  9997,2 51985  53.2161 285.2849 0001550 120.3001 239.8145 15.08827968129125,6917.917,95.438,540.854,538.71,0.0
51985.0,STARLINK-3651,PAYLOAD,2024-07-01 13:44:31,15.08829251,0.000124,53.217,284.9912,111.7223,248.3901,0.00021252,3.095e-05,0.0,0 STARLINK-3651,1 51985U 22025AF  24183.57258364  .00003095  00000-0  21252-3 0  9999,2 51985  53.2170 284.9912 0001240 111.7223 248.3901 15.08829251128040,6917.913,95.438,540.636,538.92,0.0
